0 FENGYUN 1C DEB
1 32317U 99025CXJ 13285.55955802  .00002280  00000-0  10066-2 0  2067
2 32317 098.0316 043.5600 0178537 300.2448 058.1590 14.16031066320534
0 FENGYUN 1C DEB
1 32317U 99025CXJ 13287.11405873  .00002310  00000-0  10223-2 0  2079
2 32317 098.0346 044.9694 0176982 295.6708 062.6491 14.16039128320754
0 FENGYUN 1C DEB
1 32317U 99025CXJ 13289.09251142  .00002355  00000-0  10443-2 0  2080
2 32317 098.0336 046.7560 0175308 289.8524 068.4108 14.16049752321032
0 FENGYUN 1C DEB
1 32317U 99025CXJ 13290.57628527  .00003696  00000-0  16138-2 0  2109
2 32317 098.0386 048.1162 0174711 285.0345 073.2019 14.16080139321249
0 FENGYUN 1C DEB
1 32317U 99025CXJ 13290.57634121  .00002513  00000-0  11178-2 0  2090
2 32317 098.0328 048.1029 0172862 285.5764 072.7482 14.16061821321247
0 FENGYUN 1C DEB
1 32317U 99025CXJ 13291.56553678  .00002641  00000-0  11609-2 0  2100
2 32317 098.0243 048.9867 0179144 283.3850 074.8825 14.16071925321388
0 FENGYUN 1C DEB
1 32317U 99025CXJ 13293.54392746  .00002740  00000-0  11994-2 0  2115
2 32317 098.0200 050.7774 0181072 278.4717 079.6366 14.16085479321662
0 FENGYUN 1C DEB
1 32317U 99025CXJ 13296.08757837  .00002741  00000-0  11994-2 0  2125
2 32317 098.0200 053.0702 0181051 271.0492 086.9947 14.16099592322023
